STARLINK-4729           
1 53804U 22111AH  26068.71746099 -.00000037  00000+0  15780-4 0  9997
2 53804  53.2158 258.7790 0001326  89.1228 270.9916 15.08837677193892
LEMUR-2-LANGER2SPACE    
1 63358U 25061H   26068.93705617  .00006238  00000+0  35148-3 0  9991
2 63358  97.5541  45.3892 0015335 237.4180 122.5571 15.13463796 52602
